{
  "type": "FeatureCollection",
  "features": [
    {
      "type": "Feature",
      "properties": {
        "norad_id": 42917,
        "name": "QZS-3 (QZSS/PRN 199)",
        "group": "gnss",
        "lat": 0.003907107226839588,
        "lon": 109.48147494023817,
        "alt_km": 35795.73816100299,
        "timestamp": "2025-12-21T16:47:54.980886+00:00",
        "meta_object_name": "QZS-3 (QZSS/PRN 199)",
        "meta_object_id": "2017-048A",
        "meta_epoch": "2025-12-21T12:37:21.133056",
        "meta_mean_motion": 1.00264957,
        "meta_eccentricity": 0.0001844,
        "meta_inclination": 0.0291,
        "meta_ra_of_asc_node": 161.3589,
        "meta_arg_of_pericenter": 119.0353,
        "meta_mean_anomaly": 126.2906,
        "meta_ephemeris_type": 0,
        "meta_classification_type": "U",
        "meta_norad_cat_id": 42917,
        "meta_element_set_no": 999,
        "meta_rev_at_epoch": 3047,
        "meta_bstar": 0,
        "meta_mean_motion_dot": 0,
        "meta_mean_motion_ddot": 0,
        "tle_line1": "1 42917U 17048A   25355.52593904  .00000000  00000+0  00000+0 0  9998",
        "tle_line2": "2 42917   0.0291 161.3589 0001844 119.0353 126.2906  1.00264957 30473"
      },
      "geometry": {
        "type": "Point",
        "coordinates": [
          109.48147494023817,
          0.003907107226839588
        ]
      }
    },
    {
      "type": "Feature",
      "properties": {
        "norad_id": 42939,
        "name": "COSMOS 2522 (752)",
        "group": "gnss",
        "lat": -29.389321389408952,
        "lon": -177.98017435327657,
        "alt_km": 19137.5382590509,
        "timestamp": "2025-12-21T16:47:54.980905+00:00",
        "meta_object_name": "COSMOS 2522 (752)",
        "meta_object_id": "2017-055A",
        "meta_epoch": "2025-12-20T19:18:35.639424",
        "meta_mean_motion": 2.13102071,
        "meta_eccentricity": 0.00063061,
        "meta_inclination": 64.0764,
        "meta_ra_of_asc_node": 197.9542,
        "meta_arg_of_pericenter": 223.7674,
        "meta_mean_anomaly": 136.256,
        "meta_ephemeris_type": 0,
        "meta_classification_type": "U",
        "meta_norad_cat_id": 42939,
        "meta_element_set_no": 999,
        "meta_rev_at_epoch": 6417,
        "meta_bstar": 0,
        "meta_mean_motion_dot": 9.9e-07,
        "meta_mean_motion_ddot": 0,
        "tle_line1": "1 42939U 17055A   25354.80457916  .00000099  00000+0  00000+0 0  9990",
        "tle_line2": "2 42939  64.0764 197.9542 0006306 223.7674 136.2560  2.13102071 64177"
      },
      "geometry": {
        "type": "Point",
        "coordinates": [
          -177.98017435327657,
          -29.389321389408952
        ]
      }
    },
    {
      "type": "Feature",
      "properties": {
        "norad_id": 42965,
        "name": "QZS-4 (QZSS/PRN 195)",
        "group": "gnss",
        "lat": 30.959223619156884,
        "lon": 120.52505391053741,
        "alt_km": 38302.52577982298,
        "timestamp": "2025-12-21T16:47:54.980927+00:00",
        "meta_object_name": "QZS-4 (QZSS/PRN 195)",
        "meta_object_id": "2017-062A",
        "meta_epoch": "2025-12-20T12:23:32.377344",
        "meta_mean_motion": 1.00250818,
        "meta_eccentricity": 0.07514763,
        "meta_inclination": 40.2219,
        "meta_ra_of_asc_node": 345.7724,
        "meta_arg_of_pericenter": 271.7049,
        "meta_mean_anomaly": 153.5074,
        "meta_ephemeris_type": 0,
        "meta_classification_type": "U",
        "meta_norad_cat_id": 42965,
        "meta_element_set_no": 999,
        "meta_rev_at_epoch": 3001,
        "meta_bstar": 0,
        "meta_mean_motion_dot": -3.25e-06,
        "meta_mean_motion_ddot": 0,
        "tle_line1": "1 42965U 17062A   25354.51634696 -.00000325  00000+0  00000+0 0  9990",
        "tle_line2": "2 42965  40.2219 345.7724 0751476 271.7049 153.5074  1.00250818 30012"
      },
      "geometry": {
        "type": "Point",
        "coordinates": [
          120.52505391053741,
          30.959223619156884
        ]
      }
    },
    {
      "type": "Feature",
      "properties": {
        "norad_id": 43001,
        "name": "BEIDOU-3 M1 (C19)",
        "group": "gnss",
        "lat": -16.865504198604047,
        "lon": -99.49245711650346,
        "alt_km": 21535.963101471338,
        "timestamp": "2025-12-21T16:47:54.980951+00:00",
        "meta_object_name": "BEIDOU-3 M1 (C19)",
        "meta_object_id": "2017-069A",
        "meta_epoch": "2025-12-21T09:37:16.890816",
        "meta_mean_motion": 1.86231333,
        "meta_eccentricity": 0.000963,
        "meta_inclination": 56.5338,
        "meta_ra_of_asc_node": 68.9479,
        "meta_arg_of_pericenter": 302.2645,
        "meta_mean_anomaly": 57.6886,
        "meta_ephemeris_type": 0,
        "meta_classification_type": "U",
        "meta_norad_cat_id": 43001,
        "meta_element_set_no": 999,
        "meta_rev_at_epoch": 5529,
        "meta_bstar": 0,
        "meta_mean_motion_dot": -3.5e-07,
        "meta_mean_motion_ddot": 0,
        "tle_line1": "1 43001U 17069A   25355.40088994 -.00000035  00000+0  00000+0 0  9990",
        "tle_line2": "2 43001  56.5338  68.9479 0009630 302.2645  57.6886  1.86231333 55294"
      },
      "geometry": {
        "type": "Point",
        "coordinates": [
          -99.49245711650346,
          -16.865504198604047
        ]
      }
    },
    {
      "type": "Feature",
      "properties": {
        "norad_id": 43002,
        "name": "BEIDOU-3 M2 (C20)",
        "group": "gnss",
        "lat": -47.30134788802364,
        "lon": -65.2992280099779,
        "alt_km": 21532.628668065277,
        "timestamp": "2025-12-21T16:47:54.980970+00:00",
        "meta_object_name": "BEIDOU-3 M2 (C20)",
        "meta_object_id": "2017-069B",
        "meta_epoch": "2025-12-21T08:08:32.718912",
        "meta_mean_motion": 1.86231017,
        "meta_eccentricity": 0.0006632,
        "meta_inclination": 56.5336,
        "meta_ra_of_asc_node": 68.9856,
        "meta_arg_of_pericenter": 329.1599,
        "meta_mean_anomaly": 30.8471,
        "meta_ephemeris_type": 0,
        "meta_classification_type": "U",
        "meta_norad_cat_id": 43002,
        "meta_element_set_no": 999,
        "meta_rev_at_epoch": 5528,
        "meta_bstar": 0,
        "meta_mean_motion_dot": -3.5e-07,
        "meta_mean_motion_ddot": 0,
        "tle_line1": "1 43002U 17069B   25355.33926758 -.00000035  00000+0  00000+0 0  9992",
        "tle_line2": "2 43002  56.5336  68.9856 0006632 329.1599  30.8471  1.86231017 55288"
      },
      "geometry": {
        "type": "Point",
        "coordinates": [
          -65.2992280099779,
          -47.30134788802364
        ]
      }
    },
    {
      "type": "Feature",
      "properties": {
        "norad_id": 43055,
        "name": "GSAT0215 (GALILEO 19)",
        "group": "gnss",
        "lat": -53.01360813790473,
        "lon": 114.15065140433026,
        "alt_km": 23227.89275685025,
        "timestamp": "2025-12-21T16:47:54.981003+00:00",
        "meta_object_name": "GSAT0215 (GALILEO 19)",
        "meta_object_id": "2017-079A",
        "meta_epoch": "2025-12-18T08:21:56.206080",
        "meta_mean_motion": 1.70474068,
        "meta_eccentricity": 0.00012335,
        "meta_inclination": 55.1282,
        "meta_ra_of_asc_node": 226.4832,
        "meta_arg_of_pericenter": 345.8587,
        "meta_mean_anomaly": 14.2435,
        "meta_ephemeris_type": 0,
        "meta_classification_type": "U",
        "meta_norad_cat_id": 43055,
        "meta_element_set_no": 999,
        "meta_rev_at_epoch": 4990,
        "meta_bstar": 0,
        "meta_mean_motion_dot": 6.2e-07,
        "meta_mean_motion_ddot": 0,
        "tle_line1": "1 43055U 17079A   25352.34856720  .00000062  00000+0  00000+0 0  9999",
        "tle_line2": "2 43055  55.1282 226.4832 0001233 345.8587  14.2435  1.70474068 49906"
      },
      "geometry": {
        "type": "Point",
        "coordinates": [
          114.15065140433026,
          -53.01360813790473
        ]
      }
    },
    {
      "type": "Feature",
      "properties": {
        "norad_id": 43056,
        "name": "GSAT0216 (GALILEO 20)",
        "group": "gnss",
        "lat": 53.385910546340035,
        "lon": -63.856435041649476,
        "alt_km": 23218.816522735437,
        "timestamp": "2025-12-21T16:47:54.981022+00:00",
        "meta_object_name": "GSAT0216 (GALILEO 20)",
        "meta_object_id": "2017-079B",
        "meta_epoch": "2025-12-19T19:30:44.926272",
        "meta_mean_motion": 1.70474153,
        "meta_eccentricity": 0.00023685,
        "meta_inclination": 55.1281,
        "meta_ra_of_asc_node": 226.4428,
        "meta_arg_of_pericenter": 323.7267,
        "meta_mean_anomaly": 36.3665,
        "meta_ephemeris_type": 0,
        "meta_classification_type": "U",
        "meta_norad_cat_id": 43056,
        "meta_element_set_no": 999,
        "meta_rev_at_epoch": 4994,
        "meta_bstar": 0,
        "meta_mean_motion_dot": 6.9e-07,
        "meta_mean_motion_ddot": 0,
        "tle_line1": "1 43056U 17079B   25353.81301998  .00000069  00000+0  00000+0 0  9992",
        "tle_line2": "2 43056  55.1281 226.4428 0002368 323.7267  36.3665  1.70474153 49946"
      },
      "geometry": {
        "type": "Point",
        "coordinates": [
          -63.856435041649476,
          53.385910546340035
        ]
      }
    }
  ]
}